[{"OBJECT_NAME":"LYNK TOWER 4","OBJECT_ID":"2023-001AB","EPOCH":"2026-03-09T16:15:30.644928","MEAN_MOTION":15.31819885,"ECCENTRICITY":0.00103213,"INCLINATION":97.3324,"RA_OF_ASC_NODE":128.594,"ARG_OF_PERICENTER":112.3386,"MEAN_ANOMALY":247.895,"EPHEMERIS_TYPE":0,"CLASSIFICATION_TYPE":"U","NORAD_CAT_ID":55034,"ELEMENT_SET_NO":999,"REV_AT_EPOCH":17658,"BSTAR":0.00030013829,"MEAN_MOTION_DOT":9.16e-5,"MEAN_MOTION_DDOT":0},{"OBJECT_NAME":"STARLINK-31993","OBJECT_ID":"2024-107S","EPOCH":"2026-03-09T06:44:36.926016","MEAN_MOTION":15.30197661,"ECCENTRICITY":0.00012122,"INCLINATION":53.161,"RA_OF_ASC_NODE":67.4421,"ARG_OF_PERICENTER":86.4352,"MEAN_ANOMALY":273.6787,"EPHEMERIS_TYPE":0,"CLASSIFICATION_TYPE":"U","NORAD_CAT_ID":59961,"ELEMENT_SET_NO":999,"REV_AT_EPOCH":9967,"BSTAR":2.1540336e-5,"MEAN_MOTION_DOT":2.79e-6,"MEAN_MOTION_DDOT":0}]
